{
  "links" : {
    "next" : "https://api.nasa.gov/neo/rest/v1/feed?start_date=2010-05-23&end_date=2010-05-23&detailed=true&api_key=t0TVs3DtDT2H8Oy2Zy8m2eVrNsAVKAexjcZXUckd",
    "prev" : "https://api.nasa.gov/neo/rest/v1/feed?start_date=2010-05-21&end_date=2010-05-21&detailed=true&api_key=t0TVs3DtDT2H8Oy2Zy8m2eVrNsAVKAexjcZXUckd",
    "self" : "https://api.nasa.gov/neo/rest/v1/feed?start_date=2010-05-22&end_date=2010-05-22&detailed=true&api_key=t0TVs3DtDT2H8Oy2Zy8m2eVrNsAVKAexjcZXUckd"
  },
  "element_count" : 5,
  "near_earth_objects" : {
    "2010-05-22" : [ {
      "links" : {
        "self" : "https://api.nasa.gov/neo/rest/v1/neo/2436325?api_key=t0TVs3DtDT2H8Oy2Zy8m2eVrNsAVKAexjcZXUckd"
      },
      "neo_reference_id" : "2436325",
      "name" : "436325 (2010 GR7)",
      "nasa_jpl_url" : "http://ssd.jpl.nasa.gov/sbdb.cgi?sstr=2436325",
      "absolute_magnitude_h" : 18.4,
      "estimated_diameter" : {
        "kilometers" : {
          "estimated_diameter_min" : 0.5553349116,
          "estimated_diameter_max" : 1.2417666126
        },
        "meters" : {
          "estimated_diameter_min" : 555.334911581,
          "estimated_diameter_max" : 1241.766612574
        },
        "miles" : {
          "estimated_diameter_min" : 0.3450690093,
          "estimated_diameter_max" : 0.7715977618
        },
        "feet" : {
          "estimated_diameter_min" : 1821.9649913114,
          "estimated_diameter_max" : 4074.0375731972
        }
      },
      "is_potentially_hazardous_asteroid" : false,
      "close_approach_data" : [ {
        "close_approach_date" : "2010-05-22",
        "epoch_date_close_approach" : 1274511600000,
        "relative_velocity" : {
          "kilometers_per_second" : "21.5397970213",
          "kilometers_per_hour" : "77543.2692765666",
          "miles_per_hour" : "48182.3719568755"
        },
        "miss_distance" : {
          "astronomical" : "0.4978155726",
          "lunar" : "193.6502532959",
          "kilometers" : "74472152",
          "miles" : "46274848"
        },
        "orbiting_body" : "Earth"
      } ],
      "orbital_data" : {
        "orbit_id" : "31",
        "orbit_determination_date" : "2017-04-06 09:20:43",
        "orbit_uncertainty" : "0",
        "minimum_orbit_intersection" : ".282797",
        "jupiter_tisserand_invariant" : "3.419",
        "epoch_osculation" : "2458000.5",
        "eccentricity" : ".8455454884168803",
        "semi_major_axis" : "1.831463127638856",
        "inclination" : "24.13390916505533",
        "ascending_node_longitude" : "157.5734421084428",
        "orbital_period" : "905.3066201358034",
        "perihelion_distance" : ".2828777428619524",
        "perihelion_argument" : "191.9839353598191",
        "aphelion_distance" : "3.38004851241576",
        "perihelion_time" : "2458095.819927252113",
        "mean_anomaly" : "322.0955231658273",
        "mean_motion" : ".397655326927795",
        "equinox" : "J2000"
      }
    }, {
      "links" : {
        "self" : "https://api.nasa.gov/neo/rest/v1/neo/3076899?api_key=t0TVs3DtDT2H8Oy2Zy8m2eVrNsAVKAexjcZXUckd"
      },
      "neo_reference_id" : "3076899",
      "name" : "(2001 JW1)",
      "nasa_jpl_url" : "http://ssd.jpl.nasa.gov/sbdb.cgi?sstr=3076899",
      "absolute_magnitude_h" : 20.2,
      "estimated_diameter" : {
        "kilometers" : {
          "estimated_diameter_min" : 0.2424124811,
          "estimated_diameter_max" : 0.5420507863
        },
        "meters" : {
          "estimated_diameter_min" : 242.4124811008,
          "estimated_diameter_max" : 542.0507863358
        },
        "miles" : {
          "estimated_diameter_min" : 0.1506280858,
          "estimated_diameter_max" : 0.3368146392
        },
        "feet" : {
          "estimated_diameter_min" : 795.3165644948,
          "estimated_diameter_max" : 1778.3819018419
        }
      },
      "is_potentially_hazardous_asteroid" : false,
      "close_approach_data" : [ {
        "close_approach_date" : "2010-05-22",
        "epoch_date_close_approach" : 1274511600000,
        "relative_velocity" : {
          "kilometers_per_second" : "17.9313921205",
          "kilometers_per_hour" : "64553.0116339436",
          "miles_per_hour" : "40110.7310344357"
        },
        "miss_distance" : {
          "astronomical" : "0.2939045192",
          "lunar" : "114.3288574219",
          "kilometers" : "43967488",
          "miles" : "27320132"
        },
        "orbiting_body" : "Earth"
      } ],
      "orbital_data" : {
        "orbit_id" : "33",
        "orbit_determination_date" : "2017-04-06 09:16:22",
        "orbit_uncertainty" : "0",
        "minimum_orbit_intersection" : ".149695",
        "jupiter_tisserand_invariant" : "5.190",
        "epoch_osculation" : "2458000.5",
        "eccentricity" : ".06872558582652256",
        "semi_major_axis" : "1.178300003054432",
        "inclination" : "35.39366675826666",
        "ascending_node_longitude" : "62.03993962011283",
        "orbital_period" : "467.1778515170828",
        "perihelion_distance" : "1.097320645065123",
        "perihelion_argument" : "97.49485250451472",
        "aphelion_distance" : "1.259279361043741",
        "perihelion_time" : "2458029.726985348694",
        "mean_anomaly" : "337.4781388043926",
        "mean_motion" : ".7705844761924383",
        "equinox" : "J2000"
      }
    }, {
      "links" : {
        "self" : "https://api.nasa.gov/neo/rest/v1/neo/3472700?api_key=t0TVs3DtDT2H8Oy2Zy8m2eVrNsAVKAexjcZXUckd"
      },
      "neo_reference_id" : "3472700",
      "name" : "(2009 UZ87)",
      "nasa_jpl_url" : "http://ssd.jpl.nasa.gov/sbdb.cgi?sstr=3472700",
      "absolute_magnitude_h" : 25.9,
      "estimated_diameter" : {
        "kilometers" : {
          "estimated_diameter_min" : 0.0175612318,
          "estimated_diameter_max" : 0.0392681082
        },
        "meters" : {
          "estimated_diameter_min" : 17.561231848,
          "estimated_diameter_max" : 39.2681081809
        },
        "miles" : {
          "estimated_diameter_min" : 0.0109120402,
          "estimated_diameter_max" : 0.0244000636
        },
        "feet" : {
          "estimated_diameter_min" : 57.6155918963,
          "estimated_diameter_max" : 128.8323800441
        }
      },
      "is_potentially_hazardous_asteroid" : false,
      "close_approach_data" : [ {
        "close_approach_date" : "2010-05-22",
        "epoch_date_close_approach" : 1274511600000,
        "relative_velocity" : {
          "kilometers_per_second" : "7.8823815125",
          "kilometers_per_hour" : "28376.5734449593",
          "miles_per_hour" : "17632.099205286"
        },
        "miss_distance" : {
          "astronomical" : "0.2548867511",
          "lunar" : "99.1509475708",
          "kilometers" : "38130516",
          "miles" : "23693204"
        },
        "orbiting_body" : "Earth"
      } ],
      "orbital_data" : {
        "orbit_id" : "9",
        "orbit_determination_date" : "2017-04-06 08:59:19",
        "orbit_uncertainty" : "6",
        "minimum_orbit_intersection" : ".0117849",
        "jupiter_tisserand_invariant" : "6.459",
        "epoch_osculation" : "2458000.5",
        "eccentricity" : ".1880902153995966",
        "semi_major_axis" : ".9237377205047146",
        "inclination" : "3.780995327257969",
        "ascending_node_longitude" : "218.5006491038644",
        "orbital_period" : "324.2809556767761",
        "perihelion_distance" : ".7499916936822505",
        "perihelion_argument" : "45.299245656065",
        "aphelion_distance" : "1.097483747327179",
        "perihelion_time" : "2457948.831692602959",
        "mean_anomaly" : "57.35949132170016",
        "mean_motion" : "1.11014844904684",
        "equinox" : "J2000"
      }
    } ]
  }
}